{"type":"FeatureCollection","features":[{"type":"Feature","properties":{"ref":"F208","name":"Fjallabakslei\u00f0 nyr\u00f0ri","color":"#ff902e","label":"F208","note":"Fjallabakslei\u00f0 nyr\u00f0ri \u00b7 Landmannalaugar \u5317\u7ebf"},"geometry":{"type":"MultiLineString","coordinates":[[[-18.49098,63.77037],[-18.49456,63.7714],[-18.49872,63.77141],[-18.50236,63.77161],[-18.5093,63.77304],[-18.51822,63.77785],[-18.53086,63.7828],[-18.53705,63.78597],[-18.54067,63.78862],[-18.54329,63.79064],[-18.54574,63.79193],[-18.55146,63.79702],[-18.55963,63.80182],[-18.56222,63.80238],[-18.566,63.80298],[-18.57049,63.80403],[-18.57477,63.80553],[-18.57779,63.80636],[-18.58099,63.80803],[-18.58215,63.80968],[-18.58174,63.81132],[-18.581,63.81283],[-18.58261,63.81298],[-18.58362,63.81363],[-18.58334,63.81529],[-18.58425,63.81645],[-18.58361,63.818],[-18.58328,63.81944],[-18.58356,63.82162],[-18.58163,63.82326],[-18.58139,63.82504],[-18.58257,63.82694],[-18.58037,63.83132],[-18.57937,63.83422],[-18.58065,63.83591],[-18.58121,63.83916],[-18.57629,63.84769],[-18.57626,63.8509],[-18.57602,63.85312],[-18.57603,63.85618],[-18.58096,63.86237],[-18.56874,63.8688],[-18.56906,63.87066],[-18.57505,63.8786],[-18.57521,63.8799]],[[-18.65277,63.94341],[-18.65342,63.94391],[-18.65401,63.94548],[-18.65437,63.94669],[-18.65453,63.94879],[-18.6592,63.95126],[-18.66585,63.95407],[-18.66866,63.95452],[-18.67055,63.95605],[-18.67381,63.95701],[-18.67688,63.95792],[-18.6783,63.95934],[-18.68081,63.96081],[-18.68522,63.96255],[-18.69062,63.96328],[-18.6914,63.96328],[-18.69325,63.96299],[-18.69759,63.96258],[-18.70373,63.96263],[-18.70888,63.96282],[-18.71194,63.96274],[-18.71524,63.96245],[-18.71863,63.96108],[-18.72144,63.96154],[-18.72514,63.96179],[-18.72835,63.96323],[-18.73297,63.96432],[-18.73628,63.96642],[-18.73772,63.96827],[-18.73962,63.97049],[-18.74113,63.97176],[-18.74278,63.973],[-18.74587,63.97481],[-18.74974,63.97592],[-18.75358,63.97757],[-18.7565,63.97906],[-18.75977,63.981],[-18.76236,63.98195],[-18.76626,63.982],[-18.76703,63.98196],[-18.76913,63.98249],[-18.77018,63.98277]],[[-18.57521,63.8799],[-18.57519,63.88016]],[[-18.57519,63.88016],[-18.57586,63.88176],[-18.58013,63.88278],[-18.58411,63.88442],[-18.58673,63.88619],[-18.58859,63.88802],[-18.59048,63.89023],[-18.59297,63.89277],[-18.59703,63.89536],[-18.59972,63.89677],[-18.60182,63.89862],[-18.6019,63.9001],[-18.60142,63.90283],[-18.60082,63.90392],[-18.59996,63.90511],[-18.59832,63.90603],[-18.59777,63.90743],[-18.59804,63.90902],[-18.59845,63.91038],[-18.59879,63.91301],[-18.59945,63.91451],[-18.60184,63.917],[-18.60201,63.91795],[-18.60217,63.91895],[-18.60446,63.9193],[-18.60921,63.91861],[-18.62067,63.91619],[-18.62284,63.91626],[-18.6248,63.91716],[-18.62616,63.91846],[-18.62834,63.92054],[-18.63035,63.92168],[-18.63202,63.92397],[-18.63387,63.92519],[-18.63514,63.92646],[-18.63601,63.92741],[-18.63669,63.92809],[-18.63641,63.92852],[-18.63542,63.92881],[-18.63582,63.92946],[-18.63584,63.93012],[-18.63621,63.93057],[-18.63713,63.93082],[-18.63743,63.93197],[-18.63855,63.93374],[-18.63746,63.93549],[-18.63678,63.93622],[-18.63686,63.93644]],[[-18.99818,64.00938],[-18.99898,64.0096]],[[-18.99898,64.0096],[-18.99951,64.00973],[-19.00009,64.00966],[-19.00079,64.00941],[-19.00105,64.00919],[-19.00091,64.00895],[-19.00075,64.00866],[-19.00084,64.00842],[-19.00127,64.00833],[-19.00182,64.00824],[-19.00207,64.00813],[-19.00234,64.0079],[-19.00324,64.0078],[-19.00379,64.00773],[-19.00423,64.00773],[-19.00477,64.00778],[-19.00518,64.00784],[-19.00575,64.00805],[-19.00648,64.00835],[-19.00693,64.00845],[-19.00744,64.00845],[-19.0081,64.00836],[-19.0099,64.00786],[-19.01131,64.00743],[-19.0131,64.007],[-19.01352,64.0068],[-19.01374,64.00653],[-19.0137,64.00625],[-19.0135,64.00583],[-19.01359,64.00559],[-19.01397,64.00544],[-19.01457,64.00526],[-19.01527,64.00523],[-19.01607,64.00532],[-19.01683,64.00521],[-19.01752,64.00497],[-19.01799,64.00466],[-19.01832,64.00458],[-19.01907,64.00458],[-19.02013,64.00444],[-19.0212,64.00412],[-19.02162,64.00399],[-19.02256,64.00397],[-19.02345,64.00393],[-19.0243,64.0038],[-19.02525,64.00369],[-19.02739,64.00368],[-19.02799,64.00369],[-19.02854,64.00373],[-19.0291,64.00385],[-19.0295,64.00402],[-19.0298,64.00408],[-19.03045,64.00408],[-19.03071,64.00413],[-19.03113,64.00423],[-19.03181,64.00436],[-19.03258,64.00444],[-19.03419,64.00459],[-19.03489,64.00465]],[[-18.77889,63.98214],[-18.77957,63.98252],[-18.77958,63.98276],[-18.77906,63.98302],[-18.77823,63.98331],[-18.77796,63.98347],[-18.77783,63.98384],[-18.77803,63.9843],[-18.77831,63.98451],[-18.77892,63.98472],[-18.77959,63.9849],[-18.77991,63.98503],[-18.77997,63.98516],[-18.77973,63.9854],[-18.77941,63.98555],[-18.77881,63.98572],[-18.77806,63.98575],[-18.77566,63.98565],[-18.7745,63.98561],[-18.77412,63.98567],[-18.77376,63.98585],[-18.77377,63.98609],[-18.77365,63.98624],[-18.77323,63.98628],[-18.77254,63.98622],[-18.77203,63.98614],[-18.77163,63.98605],[-18.77127,63.98611],[-18.77052,63.98624],[-18.76956,63.98626],[-18.76898,63.98616],[-18.76829,63.9859],[-18.7677,63.9857],[-18.7675,63.98547],[-18.76752,63.98501],[-18.76791,63.98425],[-18.76861,63.98351],[-18.769,63.98338],[-18.76996,63.98328],[-18.77039,63.98319],[-18.77064,63.98305],[-18.77056,63.9829],[-18.77018,63.98277]],[[-18.77889,63.98214],[-18.78138,63.97778],[-18.78934,63.97473],[-18.79741,63.97203],[-18.80471,63.97016],[-18.81075,63.96935],[-18.8186,63.96819],[-18.82356,63.97068],[-18.8366,63.97383],[-18.84504,63.97475],[-18.84462,63.97877],[-18.84831,63.98085],[-18.85345,63.98234],[-18.85882,63.98254],[-18.86629,63.98123],[-18.86843,63.98031],[-18.87367,63.98016],[-18.87755,63.97979],[-18.88045,63.98045],[-18.88258,63.98013],[-18.88742,63.97952],[-18.89285,63.98026],[-18.89439,63.97975],[-18.89344,63.97867],[-18.89343,63.97761],[-18.89586,63.97872],[-18.8979,63.97999],[-18.90435,63.98091],[-18.90914,63.98476],[-18.9138,63.98811],[-18.91945,63.98905],[-18.9256,63.99089],[-18.93542,63.99135],[-18.94882,63.98999],[-18.96463,63.98683],[-18.97711,63.9851],[-18.98932,63.98763],[-18.99911,63.99028],[-18.99279,63.99419],[-18.99034,64.00096],[-18.99778,64.00659],[-18.99818,64.00938]],[[-19.03489,64.00465],[-19.03569,64.00478],[-19.03588,64.00481],[-19.03601,64.00482],[-19.03613,64.00481],[-19.03624,64.0048]],[[-18.63867,63.93801],[-18.63882,63.93809],[-18.63914,63.9383],[-18.63936,63.93842],[-18.63949,63.93852],[-18.63954,63.93869],[-18.6394,63.93892],[-18.63934,63.93911],[-18.63941,63.93926],[-18.63963,63.93934],[-18.64029,63.9394],[-18.64121,63.93953],[-18.64204,63.93962],[-18.64251,63.93962],[-18.64293,63.93961],[-18.64357,63.93953],[-18.64467,63.93937],[-18.64669,63.93903],[-18.64702,63.93902],[-18.64742,63.93904],[-18.64808,63.93915],[-18.64894,63.93929],[-18.64926,63.93935],[-18.64966,63.93943],[-18.65024,63.93948],[-18.65098,63.93946],[-18.65224,63.93941],[-18.65315,63.93937],[-18.65384,63.93938],[-18.65444,63.93947],[-18.65525,63.93969],[-18.65613,63.93997],[-18.65671,63.94021],[-18.65701,63.94043],[-18.65718,63.94068],[-18.65716,63.94085],[-18.65707,63.94099],[-18.65677,63.94115],[-18.6563,63.94135],[-18.65597,63.94155],[-18.65553,63.94188],[-18.65509,63.94225],[-18.6546,63.9426],[-18.65435,63.94271],[-18.65391,63.94284],[-18.65332,63.94303],[-18.65314,63.94311],[-18.65296,63.94323],[-18.65284,63.9433],[-18.65276,63.94336],[-18.65277,63.94341]],[[-18.63686,63.93644],[-18.63704,63.93679],[-18.63713,63.93696],[-18.63726,63.93712],[-18.63744,63.93727],[-18.63771,63.93745],[-18.63794,63.93759],[-18.63825,63.93777],[-18.63867,63.93801]]]}},{"type":"Feature","properties":{"ref":"209","name":"Hr\u00edfunesvegur","color":"#63a8ff","label":"209","note":"Hr\u00edfunesvegur \u00b7 \u63a5 F232\uff08\u5e38\u5199\u4f5c F209\uff09"},"geometry":{"type":"MultiLineString","coordinates":[[[-18.51978,63.63551],[-18.519,63.63594],[-18.51862,63.6362],[-18.51818,63.63697],[-18.51781,63.63751],[-18.51746,63.63779],[-18.51688,63.638],[-18.51579,63.63821],[-18.51425,63.63841],[-18.51294,63.63868],[-18.51107,63.63917],[-18.5101,63.63948],[-18.50968,63.63962],[-18.50932,63.63978],[-18.50897,63.64004],[-18.5088,63.64031],[-18.50877,63.64058],[-18.50874,63.64124],[-18.50869,63.64145],[-18.50755,63.64255],[-18.50627,63.64379],[-18.50569,63.64486],[-18.50528,63.64584],[-18.50529,63.6461],[-18.50567,63.64739],[-18.5056,63.64777],[-18.50445,63.64873],[-18.50334,63.64982],[-18.50201,63.65049],[-18.50171,63.65075],[-18.50106,63.6518],[-18.50149,63.65358],[-18.50145,63.65393],[-18.50126,63.6541],[-18.50065,63.65428],[-18.49996,63.65425],[-18.49964,63.6543],[-18.49887,63.65459],[-18.49866,63.65473],[-18.49858,63.65486],[-18.49865,63.65504],[-18.49916,63.65567],[-18.49999,63.65939],[-18.50154,63.66681],[-18.50211,63.67007],[-18.50193,63.67074],[-18.5013,63.67139],[-18.49974,63.67265],[-18.49721,63.67471],[-18.49536,63.67579]],[[-18.49072,63.68811],[-18.48969,63.68799],[-18.48913,63.68794],[-18.48877,63.68791]],[[-18.49536,63.67579],[-18.49529,63.67583]],[[-18.49211,63.68827],[-18.49072,63.68811]],[[-18.49529,63.67583],[-18.49441,63.67631],[-18.49418,63.67646],[-18.49405,63.67654],[-18.49375,63.6768],[-18.49362,63.67694],[-18.49351,63.67707],[-18.49335,63.67735],[-18.49328,63.6775],[-18.49324,63.67764],[-18.49323,63.67783],[-18.49325,63.67802],[-18.4933,63.67822],[-18.49334,63.6784],[-18.49348,63.67868],[-18.49372,63.67896],[-18.49416,63.67937],[-18.49729,63.68191],[-18.49767,63.68223],[-18.49783,63.6824],[-18.49798,63.68257],[-18.49824,63.68294],[-18.49844,63.68336],[-18.49854,63.68378],[-18.49855,63.68381],[-18.49857,63.684],[-18.49853,63.68422],[-18.49847,63.68447],[-18.49835,63.68477],[-18.49812,63.68512],[-18.49804,63.68524],[-18.49786,63.68544],[-18.49763,63.68564],[-18.49568,63.68731],[-18.49521,63.68768]],[[-18.52008,63.63528],[-18.51978,63.63551]],[[-18.46358,63.5938],[-18.46373,63.59381],[-18.46387,63.59382],[-18.46402,63.59384],[-18.46416,63.59386],[-18.46436,63.59389],[-18.46452,63.59394],[-18.46466,63.594],[-18.4648,63.59408],[-18.46498,63.5942],[-18.46518,63.59438],[-18.46533,63.59454],[-18.46829,63.59766],[-18.47241,63.60202],[-18.47301,63.6026],[-18.47332,63.6029],[-18.47364,63.60317],[-18.47389,63.60339],[-18.47419,63.60362],[-18.4748,63.60407],[-18.47605,63.6049],[-18.47792,63.60612],[-18.47808,63.60623],[-18.49102,63.61469],[-18.49229,63.61551],[-18.49353,63.61634],[-18.49391,63.61662],[-18.49423,63.61691],[-18.49597,63.61881],[-18.49648,63.61925],[-18.49988,63.62139],[-18.51092,63.6284],[-18.51506,63.63105],[-18.51509,63.63106],[-18.51874,63.63336],[-18.51977,63.63405],[-18.52008,63.63427],[-18.52021,63.63439],[-18.52032,63.63449],[-18.52037,63.63461],[-18.52039,63.63473],[-18.52037,63.63484],[-18.52032,63.63496],[-18.52027,63.63507],[-18.52019,63.63519],[-18.52008,63.63528]],[[-18.49521,63.68768],[-18.49485,63.68795],[-18.49462,63.68806],[-18.49441,63.68815],[-18.49392,63.68828],[-18.49346,63.68832],[-18.49301,63.68833],[-18.49258,63.68832],[-18.49211,63.68827]],[[-18.4625,63.59387],[-18.46278,63.59384],[-18.46315,63.59382],[-18.46337,63.59381],[-18.46358,63.5938]]]}},{"type":"Feature","properties":{"ref":"F232","name":"\u00d6ldufellslei\u00f0","color":"#ef6b9b","label":"F232","note":"\u00d6ldufellslei\u00f0 \u00b7 Bl\u00e1fjallafoss"},"geometry":{"type":"MultiLineString","coordinates":[[[-18.5424,63.62904],[-18.54586,63.62919],[-18.54851,63.63005],[-18.55257,63.62981],[-18.55636,63.62918],[-18.55981,63.6299],[-18.56575,63.6306],[-18.57489,63.63052],[-18.57738,63.63024],[-18.5821,63.63149],[-18.58661,63.63182],[-18.59519,63.63394],[-18.59911,63.63488],[-18.60056,63.63567],[-18.60144,63.63657],[-18.60436,63.63879],[-18.60568,63.6394],[-18.60714,63.63947],[-18.60939,63.64037],[-18.61579,63.6412],[-18.61811,63.64164],[-18.61976,63.64225],[-18.6224,63.64307],[-18.62366,63.6431],[-18.62866,63.6446],[-18.63155,63.64641],[-18.6363,63.64944],[-18.65501,63.65295],[-18.6586,63.65379],[-18.66276,63.65443],[-18.66492,63.65431],[-18.66829,63.65449],[-18.67003,63.65581],[-18.6729,63.65573],[-18.67601,63.65565],[-18.67849,63.65595],[-18.68956,63.65711],[-18.69673,63.65746],[-18.71071,63.66101],[-18.7407,63.66783],[-18.76143,63.67725],[-18.76187,63.67817]],[[-18.74656,63.6884],[-18.74525,63.68956],[-18.74121,63.69205],[-18.73661,63.6928],[-18.73218,63.6934],[-18.72102,63.69512],[-18.7204,63.69882],[-18.72213,63.70278],[-18.72421,63.70591],[-18.72247,63.71086],[-18.72013,63.71166],[-18.72589,63.71842],[-18.73007,63.72121],[-18.73405,63.7223],[-18.74302,63.72401],[-18.74923,63.72527],[-18.75696,63.72683],[-18.76169,63.72817],[-18.76619,63.72979],[-18.77148,63.73215],[-18.78435,63.73568],[-18.79525,63.73551],[-18.81192,63.73911],[-18.83749,63.75173],[-18.83703,63.75398],[-18.83894,63.75822],[-18.84072,63.75934],[-18.84181,63.76013],[-18.84242,63.76099],[-18.84247,63.76253],[-18.84491,63.7646],[-18.84769,63.76693],[-18.85602,63.77205],[-18.8553,63.77469],[-18.85427,63.78],[-18.85519,63.7845],[-18.85301,63.79033],[-18.84728,63.79787],[-18.84521,63.79955],[-18.84511,63.80169],[-18.84594,63.80468],[-18.84294,63.80957],[-18.83669,63.81301]],[[-18.76187,63.67817],[-18.76184,63.67835]],[[-18.76184,63.67835],[-18.76184,63.67849],[-18.76191,63.6786],[-18.76227,63.67898],[-18.76267,63.67945],[-18.7629,63.67977],[-18.76297,63.67993],[-18.76292,63.68009],[-18.76262,63.68056],[-18.76249,63.68094],[-18.76255,63.68117],[-18.76255,63.68124],[-18.76251,63.68131],[-18.76242,63.68136],[-18.7623,63.6814],[-18.76215,63.68143],[-18.76194,63.68145],[-18.76058,63.6815],[-18.7603,63.68152],[-18.76004,63.68152],[-18.75979,63.68152],[-18.75958,63.68151],[-18.75924,63.68147],[-18.75909,63.68147],[-18.75893,63.6815],[-18.75877,63.68156],[-18.75869,63.68161],[-18.75832,63.68186],[-18.75791,63.68206],[-18.75686,63.68253],[-18.75555,63.68332],[-18.75311,63.68465],[-18.75263,63.68513],[-18.7524,63.68537],[-18.75166,63.68583],[-18.75152,63.68594],[-18.75145,63.68599],[-18.75137,63.68604],[-18.75127,63.68607],[-18.75116,63.6861],[-18.75102,63.68611],[-18.75087,63.68611],[-18.75075,63.68612],[-18.75061,63.68612],[-18.75048,63.68616],[-18.75036,63.68623],[-18.75027,63.6863],[-18.74974,63.68684],[-18.74959,63.68693],[-18.74842,63.68747],[-18.74811,63.68758],[-18.74787,63.6877],[-18.7474,63.68799],[-18.74698,63.6882],[-18.74691,63.68824],[-18.74664,63.68836]],[[-18.74664,63.68836],[-18.74656,63.6884]]]}},{"type":"Feature","properties":{"ref":"F210","name":"Fjallabakslei\u00f0 sy\u00f0ri","color":"#c084fc","label":"F210","note":"Fjallabakslei\u00f0 sy\u00f0ri \u00b7 \u7ecf M\u00e6lifell"},"geometry":{"type":"MultiLineString","coordinates":[[[-19.3304,63.89995],[-19.34116,63.90145],[-19.34925,63.90272],[-19.3543,63.90411],[-19.35791,63.90345],[-19.36253,63.90248],[-19.36966,63.90207],[-19.37364,63.90146],[-19.38041,63.90316],[-19.38931,63.90558],[-19.39927,63.90588],[-19.41283,63.90728],[-19.42739,63.91009],[-19.45396,63.90137],[-19.46962,63.89086],[-19.47931,63.88396],[-19.48751,63.88449],[-19.51103,63.8755],[-19.56961,63.85518],[-19.6,63.85],[-19.62566,63.85319],[-19.65782,63.85651],[-19.68548,63.86185],[-19.71762,63.86175],[-19.74239,63.86039],[-19.76141,63.8643],[-19.77472,63.85795],[-19.79391,63.84766],[-19.80664,63.84494],[-19.83086,63.84276],[-19.83292,63.83881],[-19.84046,63.83923],[-19.84391,63.83939],[-19.85526,63.83827],[-19.89195,63.83657],[-19.94959,63.82979],[-19.97326,63.82755],[-20.00672,63.82585],[-20.01839,63.82662],[-20.02876,63.82487],[-20.08421,63.82591],[-20.08692,63.82479]],[[-18.98326,63.80469],[-18.98699,63.80568],[-18.99433,63.80696],[-19.00425,63.80846],[-19.01108,63.80929],[-19.01592,63.81001],[-19.03467,63.81319],[-19.04791,63.81537],[-19.05077,63.81554],[-19.05522,63.81553],[-19.06127,63.81669],[-19.06631,63.81779],[-19.06947,63.81834],[-19.07188,63.81897],[-19.07521,63.81981],[-19.07678,63.81988],[-19.08055,63.82018],[-19.08331,63.82019],[-19.08623,63.8202],[-19.09226,63.82032],[-19.09738,63.81997],[-19.10279,63.81873],[-19.11282,63.81632],[-19.12183,63.81572],[-19.13371,63.81641],[-19.1496,63.81816],[-19.1609,63.81899],[-19.16577,63.81876],[-19.17063,63.81893],[-19.17256,63.81903],[-19.176,63.81938],[-19.17755,63.81965],[-19.17861,63.82015],[-19.1795,63.82045],[-19.18097,63.82056],[-19.18225,63.82098],[-19.18531,63.82181],[-19.18803,63.82259],[-19.18922,63.82264],[-19.18981,63.82226],[-19.19095,63.82216],[-19.19286,63.82149],[-19.1944,63.8213],[-19.19459,63.82123]],[[-19.21484,63.82576],[-19.21467,63.82582],[-19.2144,63.82596],[-19.2137,63.82624],[-19.21315,63.82643],[-19.21277,63.82657],[-19.21203,63.82679]],[[-19.2201,63.86465],[-19.22722,63.86381],[-19.24582,63.86113],[-19.24788,63.86191],[-19.24717,63.86314],[-19.25114,63.86408],[-19.25526,63.86559],[-19.2662,63.86687],[-19.27178,63.866],[-19.27482,63.86581],[-19.27678,63.86579],[-19.27578,63.86701],[-19.27488,63.86815],[-19.27068,63.87066],[-19.26933,63.87097],[-19.26633,63.87226],[-19.26322,63.87288],[-19.25945,63.87376],[-19.25679,63.87715],[-19.2525,63.87839],[-19.25111,63.87885],[-19.25107,63.88003],[-19.25246,63.88173],[-19.25505,63.88196],[-19.25665,63.88209],[-19.26007,63.88224],[-19.26231,63.88246],[-19.26524,63.88255],[-19.2676,63.88252],[-19.27867,63.88514],[-19.27992,63.8859],[-19.28334,63.88647],[-19.28504,63.88593],[-19.29108,63.88546],[-19.29339,63.88561],[-19.29359,63.88786],[-19.29326,63.88986],[-19.29666,63.89012],[-19.30336,63.88789],[-19.30754,63.88738],[-19.3089,63.88675],[-19.3102,63.88668],[-19.31175,63.88883]],[[-18.61619,63.73588],[-18.62221,63.73574],[-18.62778,63.7347],[-18.63185,63.73565],[-18.63591,63.73545],[-18.63642,63.7344],[-18.63451,63.73446],[-18.63411,63.73266],[-18.63949,63.73038],[-18.65321,63.72909],[-18.65822,63.72693],[-18.66851,63.72712],[-18.67008,63.72958],[-18.67888,63.73234],[-18.68696,63.73692],[-18.68864,63.74161],[-18.68267,63.74356],[-18.6862,63.75083],[-18.69986,63.75767],[-18.70062,63.76568],[-18.69829,63.77023],[-18.69324,63.77435],[-18.70314,63.78121],[-18.71414,63.78297],[-18.71651,63.78473],[-18.71676,63.78692],[-18.71838,63.78896],[-18.72139,63.79329],[-18.72032,63.79374],[-18.71695,63.79381],[-18.71923,63.79649],[-18.72301,63.79832],[-18.72595,63.79886],[-18.72984,63.80258],[-18.73115,63.80494],[-18.73729,63.80835],[-18.7471,63.81082],[-18.75497,63.81559],[-18.75767,63.81603],[-18.76396,63.81956],[-18.78213,63.82443],[-18.79539,63.82559],[-18.8033,63.82574],[-18.80523,63.8255]],[[-19.22517,63.85974],[-19.22518,63.85976],[-19.22519,63.85983],[-19.22514,63.86003],[-19.2251,63.8601],[-19.22487,63.8603],[-19.22445,63.86056],[-19.22369,63.86095],[-19.22287,63.86144],[-19.22207,63.86193],[-19.22156,63.86232],[-19.21998,63.8637],[-19.21944,63.8642],[-19.2194,63.86428],[-19.2194,63.86434],[-19.2194,63.86439],[-19.21946,63.86445],[-19.21953,63.8645],[-19.21964,63.86454]],[[-19.20796,63.83313],[-19.20798,63.83316],[-19.208,63.8332],[-19.20798,63.83327],[-19.208,63.83335],[-19.20799,63.83348],[-19.20796,63.83357],[-19.20788,63.83374],[-19.20787,63.83379],[-19.20788,63.83382],[-19.2079,63.83386]],[[-19.20889,63.83409],[-19.21003,63.83422],[-19.21123,63.83442],[-19.21347,63.83416],[-19.21428,63.83425],[-19.21444,63.83459],[-19.21333,63.83525],[-19.21234,63.83564],[-19.21158,63.83691],[-19.20951,63.83932],[-19.20887,63.84066],[-19.2079,63.84114],[-19.20692,63.84138],[-19.20644,63.842],[-19.20548,63.84289],[-19.20472,63.84362],[-19.2053,63.84405],[-19.20621,63.84486],[-19.2068,63.84534],[-19.20814,63.84569],[-19.20865,63.84607],[-19.20792,63.84649],[-19.207,63.84686],[-19.20556,63.84783],[-19.20469,63.84838],[-19.20516,63.84904],[-19.20497,63.84951],[-19.20494,63.85006],[-19.20563,63.85085],[-19.20605,63.85098],[-19.2066,63.85079],[-19.20756,63.85032],[-19.20958,63.85007],[-19.21141,63.84951],[-19.21252,63.84931],[-19.21369,63.84958],[-19.21446,63.84953],[-19.21509,63.85027],[-19.21584,63.85148],[-19.21267,63.8533],[-19.21024,63.85458],[-19.20944,63.85584],[-19.20909,63.85717],[-19.21046,63.85755],[-19.21165,63.85734],[-19.21208,63.85737]],[[-19.20741,63.82863],[-19.20727,63.82869],[-19.20712,63.82872],[-19.20694,63.82875],[-19.20677,63.82875],[-19.2064,63.82875],[-19.20603,63.82873],[-19.20548,63.82866],[-19.20499,63.82858],[-19.20483,63.82856],[-19.20468,63.82855],[-19.20453,63.82855],[-19.20438,63.82856],[-19.20424,63.82858],[-19.20411,63.82861],[-19.204,63.82865],[-19.2039,63.82869],[-19.20383,63.82874],[-19.2038,63.82879],[-19.2038,63.82884],[-19.20385,63.82889],[-19.20393,63.82895],[-19.20427,63.82915],[-19.20453,63.82938],[-19.20473,63.82955],[-19.20478,63.82961],[-19.20481,63.82967],[-19.2048,63.82974],[-19.20478,63.82981],[-19.20469,63.82995],[-19.20458,63.83009],[-19.2045,63.83016],[-19.20449,63.83018],[-19.20442,63.83023],[-19.20432,63.83029],[-19.2042,63.83034],[-19.20397,63.83044],[-19.20359,63.83058],[-19.20293,63.83082],[-19.20281,63.83086],[-19.20268,63.83089],[-19.20241,63.83094],[-19.20228,63.83098],[-19.20216,63.83101],[-19.20192,63.8311],[-19.20167,63.8312],[-19.20144,63.83128],[-19.20125,63.83137],[-19.20118,63.8314],[-19.2011,63.83146],[-19.20103,63.83152],[-19.20101,63.83161],[-19.20102,63.83166],[-19.20106,63.83171],[-19.20113,63.83177],[-19.20122,63.83182],[-19.20132,63.83186],[-19.20194,63.83211],[-19.20221,63.83221],[-19.20242,63.83225],[-19.20268,63.83227],[-19.20365,63.83233],[-19.20418,63.83236],[-19.20457,63.83241],[-19.20478,63.83242],[-19.20503,63.83242],[-19.20542,63.83241],[-19.20551,63.83241],[-19.20574,63.8324],[-19.20586,63.83239],[-19.20617,63.83233],[-19.20627,63.83232],[-19.20636,63.83232],[-19.20645,63.83233],[-19.20653,63.83235],[-19.20661,63.83237]],[[-19.319,63.89392],[-19.31919,63.89381],[-19.31944,63.89371],[-19.31966,63.89366],[-19.31983,63.89365],[-19.31998,63.89368],[-19.32012,63.89375],[-19.32063,63.89407],[-19.32082,63.8942],[-19.32095,63.89433],[-19.32101,63.89447],[-19.32101,63.89466],[-19.32089,63.89514],[-19.3209,63.89522],[-19.32102,63.89542],[-19.32135,63.89568],[-19.32166,63.89583],[-19.32193,63.89592],[-19.32285,63.89611],[-19.3236,63.89624],[-19.32424,63.89631],[-19.32444,63.89635],[-19.32461,63.89643],[-19.32497,63.89668],[-19.3256,63.89696],[-19.32607,63.89723],[-19.32616,63.89732],[-19.32614,63.89742],[-19.32602,63.89752],[-19.32582,63.89762],[-19.32558,63.8977],[-19.32518,63.89778],[-19.3248,63.89783],[-19.32439,63.89785],[-19.32421,63.89787],[-19.32409,63.89793],[-19.32401,63.898],[-19.32398,63.89808],[-19.32402,63.89817],[-19.32428,63.89833],[-19.32458,63.8985],[-19.32518,63.8987],[-19.32551,63.89885],[-19.32599,63.89922],[-19.32638,63.89945]],[[-18.80523,63.8255],[-18.8056,63.82541],[-18.80592,63.8253],[-18.80606,63.82527],[-18.80621,63.82522],[-18.80638,63.82515],[-18.80666,63.82506],[-18.8068,63.82499],[-18.80689,63.8249],[-18.8069,63.82486],[-18.80689,63.82482],[-18.80687,63.82479],[-18.80684,63.82476],[-18.80683,63.82475],[-18.80687,63.8246]],[[-18.80687,63.8246],[-18.80744,63.82436],[-18.80921,63.82401],[-18.80988,63.82421],[-18.81127,63.82499],[-18.81239,63.82544],[-18.81463,63.82525],[-18.82185,63.8231],[-18.82435,63.8176],[-18.82518,63.81497],[-18.82719,63.81477],[-18.82845,63.81495],[-18.83067,63.81479],[-18.83327,63.81424],[-18.83669,63.81301],[-18.84147,63.81403],[-18.846,63.81581],[-18.8523,63.81859],[-18.85339,63.81923],[-18.85586,63.81894],[-18.85863,63.81901],[-18.86295,63.8197],[-18.86506,63.81988],[-18.874,63.81713],[-18.88546,63.81387],[-18.9,63.80829],[-18.91357,63.80318],[-18.92348,63.79941],[-18.93279,63.79572],[-18.95004,63.79782],[-18.95288,63.79863],[-18.95381,63.79863],[-18.95446,63.79886],[-18.95509,63.79953],[-18.95556,63.79992],[-18.95572,63.80031],[-18.95853,63.80054],[-18.96296,63.80118],[-18.96705,63.80167],[-18.97386,63.8028],[-18.97842,63.80419],[-18.98326,63.80469]],[[-19.32638,63.89945],[-19.32652,63.89953],[-19.32709,63.89978],[-19.32718,63.89983],[-19.32724,63.89985],[-19.3273,63.89987],[-19.32743,63.89989],[-19.32757,63.8999],[-19.32772,63.89991],[-19.32787,63.89991],[-19.32802,63.8999],[-19.3281,63.89989],[-19.32849,63.89983],[-19.32868,63.89981],[-19.32882,63.8998],[-19.32897,63.89981],[-19.32902,63.89982],[-19.32914,63.89984],[-19.32925,63.89989],[-19.32939,63.89995],[-19.32952,63.9],[-19.32957,63.90001],[-19.32964,63.90002],[-19.32976,63.90004],[-19.32993,63.90005],[-19.33005,63.90004],[-19.33016,63.90003],[-19.33027,63.9],[-19.3304,63.89995]],[[-19.21208,63.85737],[-19.21222,63.85744],[-19.2123,63.85749],[-19.21236,63.85755],[-19.21244,63.85763],[-19.21253,63.85769],[-19.21259,63.85772],[-19.21271,63.85776],[-19.21283,63.85779],[-19.21289,63.8578],[-19.21297,63.8578],[-19.21313,63.8578],[-19.21344,63.85778],[-19.21362,63.85777]],[[-19.21362,63.85777],[-19.2143,63.85771],[-19.21476,63.85773],[-19.2154,63.85778],[-19.21597,63.8579],[-19.21646,63.85803],[-19.21806,63.85855],[-19.21985,63.85906],[-19.22097,63.85931],[-19.2214,63.8594],[-19.22154,63.85942],[-19.22168,63.85943],[-19.22181,63.85944],[-19.22194,63.85943],[-19.22207,63.85942],[-19.2222,63.85941],[-19.22303,63.85923],[-19.22317,63.85921],[-19.22331,63.8592],[-19.22344,63.8592],[-19.22383,63.85925],[-19.22414,63.85939],[-19.22493,63.85956],[-19.22509,63.85965],[-19.22515,63.85971],[-19.22517,63.85974]],[[-19.21203,63.82679],[-19.21181,63.82689],[-19.2115,63.82702],[-19.21115,63.82713],[-19.21096,63.82721],[-19.21072,63.82734],[-19.21039,63.82753],[-19.21012,63.82765],[-19.21001,63.82768],[-19.2099,63.82771],[-19.20979,63.82773],[-19.2096,63.82776],[-19.20952,63.82778],[-19.20944,63.8278],[-19.20939,63.82783],[-19.2093,63.8279],[-19.20922,63.82801],[-19.20915,63.82809],[-19.20908,63.82813],[-19.209,63.82818],[-19.2089,63.82822],[-19.20879,63.82826],[-19.20866,63.82829],[-19.2081,63.82838],[-19.20796,63.82841],[-19.20783,63.82845],[-19.20774,63.82848],[-19.20741,63.82863]],[[-19.31175,63.88883],[-19.31187,63.88894],[-19.31191,63.88899],[-19.31194,63.88912],[-19.31196,63.88917],[-19.31199,63.8892],[-19.31204,63.88923],[-19.31215,63.88927],[-19.31217,63.88928],[-19.3122,63.88929],[-19.31225,63.88934],[-19.31232,63.88943],[-19.31239,63.88956],[-19.31247,63.88966],[-19.31257,63.88977],[-19.31258,63.88983],[-19.31256,63.88988],[-19.31254,63.88993],[-19.3125,63.88998],[-19.31203,63.89046],[-19.31195,63.89056],[-19.31193,63.8906],[-19.31191,63.89065],[-19.31191,63.89069],[-19.31192,63.89072]],[[-19.21527,63.82553],[-19.21527,63.82558],[-19.21525,63.82561],[-19.21523,63.82563],[-19.21517,63.82566],[-19.21513,63.82568],[-19.21505,63.82572],[-19.21498,63.82573],[-19.21495,63.82574],[-19.21484,63.82576]],[[-19.21527,63.82553],[-19.21522,63.82548],[-19.21513,63.82544],[-19.21491,63.8254],[-19.21476,63.82536],[-19.21471,63.82529],[-19.21481,63.8252],[-19.21492,63.82502],[-19.21407,63.82476],[-19.21363,63.82452],[-19.2132,63.82431],[-19.21299,63.82426],[-19.21245,63.82416],[-19.21215,63.82408],[-19.21147,63.82384],[-19.21116,63.82377],[-19.20973,63.82364],[-19.2092,63.82352],[-19.20891,63.82347],[-19.20842,63.82341],[-19.20775,63.82327],[-19.20732,63.82315],[-19.20719,63.82306],[-19.20723,63.82286],[-19.20719,63.82275],[-19.20701,63.82265],[-19.20677,63.82257],[-19.20636,63.82248],[-19.20418,63.82211],[-19.20339,63.82205],[-19.20291,63.82203],[-19.20273,63.82199],[-19.20255,63.82191],[-19.20239,63.82181],[-19.20226,63.82166],[-19.20213,63.82146],[-19.202,63.82139],[-19.20182,63.82135],[-19.20142,63.82135],[-19.20124,63.82133],[-19.2007,63.82121],[-19.19983,63.82108],[-19.19939,63.82104],[-19.19903,63.82106],[-19.19865,63.82103],[-19.19794,63.82104],[-19.19675,63.82108],[-19.19623,63.82104],[-19.1957,63.821],[-19.19502,63.82099],[-19.19483,63.82104],[-19.19465,63.82119],[-19.19459,63.82123]],[[-19.31192,63.89072],[-19.31195,63.89074],[-19.312,63.89076],[-19.31262,63.89101],[-19.31273,63.89104],[-19.31283,63.89106],[-19.31293,63.89107],[-19.31304,63.89107],[-19.31325,63.89106],[-19.31384,63.89098],[-19.31395,63.89097],[-19.31443,63.89087],[-19.31459,63.89086],[-19.31467,63.89085],[-19.31481,63.89085],[-19.31521,63.89084],[-19.3153,63.89085]],[[-19.3153,63.89085],[-19.31562,63.89087],[-19.3158,63.89087],[-19.31587,63.89088],[-19.31593,63.89091],[-19.31602,63.89097],[-19.3162,63.89106],[-19.31638,63.89111],[-19.31655,63.89112],[-19.31669,63.89115],[-19.31685,63.89118],[-19.31698,63.89126],[-19.31719,63.89148],[-19.3173,63.89156],[-19.31739,63.89165],[-19.31754,63.89183],[-19.31759,63.8919],[-19.3176,63.89195],[-19.3176,63.892],[-19.31751,63.89234],[-19.31752,63.89237],[-19.31754,63.8924],[-19.31757,63.89242],[-19.318,63.89264]],[[-19.318,63.89264],[-19.31827,63.89272],[-19.31835,63.89274],[-19.31844,63.89276],[-19.31876,63.8928],[-19.31884,63.89281],[-19.31891,63.89283],[-19.31897,63.89286],[-19.319,63.89289],[-19.31901,63.89293],[-19.31899,63.89297],[-19.31892,63.8931],[-19.31888,63.89315],[-19.31883,63.8932],[-19.31876,63.89325],[-19.31841,63.89345],[-19.31822,63.89356],[-19.31815,63.8936],[-19.3181,63.89365],[-19.31806,63.89369],[-19.31804,63.89373],[-19.31804,63.89378],[-19.31806,63.89383],[-19.31809,63.89388],[-19.31819,63.89402],[-19.31822,63.89406],[-19.31828,63.89409],[-19.31834,63.89411],[-19.31841,63.89412],[-19.31846,63.89412],[-19.31851,63.89411]],[[-19.31851,63.89411],[-19.31865,63.89407],[-19.31883,63.894],[-19.319,63.89392]],[[-19.20829,63.83398],[-19.2085,63.83401],[-19.20864,63.83403],[-19.20874,63.83406],[-19.20878,63.83407],[-19.20889,63.83409]],[[-19.20661,63.83237],[-19.20669,63.83239],[-19.20685,63.8325],[-19.20699,63.83276],[-19.20704,63.83289],[-19.20707,63.83293],[-19.20711,63.83296],[-19.20723,63.83301]],[[-19.20723,63.83301],[-19.20741,63.83302],[-19.2076,63.83301],[-19.2077,63.83303],[-19.20791,63.83306],[-19.20796,63.83313]],[[-19.21964,63.86454],[-19.21989,63.8646],[-19.2201,63.86465]],[[-19.2079,63.83386],[-19.20808,63.83395],[-19.20824,63.83398],[-19.20829,63.83398]]]}}]}